{
  "type": "FeatureCollection",
  "features": [
    {
      "type": "Feature",
      "properties": {
        "norad_id": 32783,
        "name": "CARTOSAT-2A",
        "group": "resource",
        "lat": NaN,
        "lon": NaN,
        "alt_km": NaN,
        "timestamp": "2025-12-01T03:03:40.643917+00:00",
        "meta": {
          "OBJECT_NAME": "CARTOSAT-2A",
          "OBJECT_ID": "2008-021A",
          "EPOCH": "2025-11-30T19:55:55.970688",
          "MEAN_MOTION": 14.78899733,
          "ECCENTRICITY": 0.001265,
          "INCLINATION": 97.7947,
          "RA_OF_ASC_NODE": 25.0253,
          "ARG_OF_PERICENTER": 41.6638,
          "MEAN_ANOMALY": 318.5535,
          "EPHEMERIS_TYPE": 0,
          "CLASSIFICATION_TYPE": "U",
          "NORAD_CAT_ID": 32783,
          "ELEMENT_SET_NO": 999,
          "REV_AT_EPOCH": 94948,
          "BSTAR": 0.00013628,
          "MEAN_MOTION_DOT": 9.55e-06,
          "MEAN_MOTION_DDOT": 0
        }
      },
      "geometry": {
        "type": "Point",
        "coordinates": [
          NaN,
          NaN
        ]
      }
    },
    {
      "type": "Feature",
      "properties": {
        "norad_id": 33331,
        "name": "GEOEYE 1",
        "group": "resource",
        "lat": NaN,
        "lon": NaN,
        "alt_km": NaN,
        "timestamp": "2025-12-01T03:03:40.643944+00:00",
        "meta": {
          "OBJECT_NAME": "GEOEYE 1",
          "OBJECT_ID": "2008-042A",
          "EPOCH": "2025-11-30T18:29:19.332960",
          "MEAN_MOTION": 14.64785342,
          "ECCENTRICITY": 0.0003111,
          "INCLINATION": 98.1266,
          "RA_OF_ASC_NODE": 46.1999,
          "ARG_OF_PERICENTER": 327.8123,
          "MEAN_ANOMALY": 32.289,
          "EPHEMERIS_TYPE": 0,
          "CLASSIFICATION_TYPE": "U",
          "NORAD_CAT_ID": 33331,
          "ELEMENT_SET_NO": 999,
          "REV_AT_EPOCH": 92110,
          "BSTAR": 0.00012886,
          "MEAN_MOTION_DOT": 6.4e-06,
          "MEAN_MOTION_DDOT": 0
        }
      },
      "geometry": {
        "type": "Point",
        "coordinates": [
          NaN,
          NaN
        ]
      }
    },
    {
      "type": "Feature",
      "properties": {
        "norad_id": 33396,
        "name": "THEOS",
        "group": "resource",
        "lat": NaN,
        "lon": NaN,
        "alt_km": NaN,
        "timestamp": "2025-12-01T03:03:40.643953+00:00",
        "meta": {
          "OBJECT_NAME": "THEOS",
          "OBJECT_ID": "2008-049A",
          "EPOCH": "2025-11-30T20:16:24.871584",
          "MEAN_MOTION": 14.20092211,
          "ECCENTRICITY": 0.0001088,
          "INCLINATION": 98.5887,
          "RA_OF_ASC_NODE": 33.2843,
          "ARG_OF_PERICENTER": 100.0404,
          "MEAN_ANOMALY": 260.0896,
          "EPHEMERIS_TYPE": 0,
          "CLASSIFICATION_TYPE": "U",
          "NORAD_CAT_ID": 33396,
          "ELEMENT_SET_NO": 999,
          "REV_AT_EPOCH": 88981,
          "BSTAR": 4.9171e-05,
          "MEAN_MOTION_DOT": 6.2e-07,
          "MEAN_MOTION_DDOT": 0
        }
      },
      "geometry": {
        "type": "Point",
        "coordinates": [
          NaN,
          NaN
        ]
      }
    },
    {
      "type": "Feature",
      "properties": {
        "norad_id": 33412,
        "name": "COSMO-SKYMED 3",
        "group": "resource",
        "lat": NaN,
        "lon": NaN,
        "alt_km": NaN,
        "timestamp": "2025-12-01T03:03:40.643962+00:00",
        "meta": {
          "OBJECT_NAME": "COSMO-SKYMED 3",
          "OBJECT_ID": "2008-054A",
          "EPOCH": "2025-11-30T20:04:09.979968",
          "MEAN_MOTION": 15.05180555,
          "ECCENTRICITY": 0.0015136,
          "INCLINATION": 97.8482,
          "RA_OF_ASC_NODE": 185.0285,
          "ARG_OF_PERICENTER": 213.5163,
          "MEAN_ANOMALY": 146.5107,
          "EPHEMERIS_TYPE": 0,
          "CLASSIFICATION_TYPE": "U",
          "NORAD_CAT_ID": 33412,
          "ELEMENT_SET_NO": 999,
          "REV_AT_EPOCH": 92708,
          "BSTAR": 0.00031572,
          "MEAN_MOTION_DOT": 4.448e-05,
          "MEAN_MOTION_DDOT": 0
        }
      },
      "geometry": {
        "type": "Point",
        "coordinates": [
          NaN,
          NaN
        ]
      }
    },
    {
      "type": "Feature",
      "properties": {
        "norad_id": 33492,
        "name": "GOSAT (IBUKI)",
        "group": "resource",
        "lat": NaN,
        "lon": NaN,
        "alt_km": NaN,
        "timestamp": "2025-12-01T03:03:40.643973+00:00",
        "meta": {
          "OBJECT_NAME": "GOSAT (IBUKI)",
          "OBJECT_ID": "2009-002A",
          "EPOCH": "2025-11-30T17:29:30.340032",
          "MEAN_MOTION": 14.67542719,
          "ECCENTRICITY": 9.93e-05,
          "INCLINATION": 98.0766,
          "RA_OF_ASC_NODE": 83.4996,
          "ARG_OF_PERICENTER": 84.4796,
          "MEAN_ANOMALY": 275.6522,
          "EPHEMERIS_TYPE": 0,
          "CLASSIFICATION_TYPE": "U",
          "NORAD_CAT_ID": 33492,
          "ELEMENT_SET_NO": 999,
          "REV_AT_EPOCH": 90235,
          "BSTAR": 0.00017615,
          "MEAN_MOTION_DOT": 9.51e-06,
          "MEAN_MOTION_DDOT": 0
        }
      },
      "geometry": {
        "type": "Point",
        "coordinates": [
          NaN,
          NaN
        ]
      }
    },
    {
      "type": "Feature",
      "properties": {
        "norad_id": 35682,
        "name": "DUBAISAT-1",
        "group": "resource",
        "lat": NaN,
        "lon": NaN,
        "alt_km": NaN,
        "timestamp": "2025-12-01T03:03:40.643992+00:00",
        "meta": {
          "OBJECT_NAME": "DUBAISAT-1",
          "OBJECT_ID": "2009-041B",
          "EPOCH": "2025-11-30T20:26:09.630240",
          "MEAN_MOTION": 14.74548855,
          "ECCENTRICITY": 0.0010313,
          "INCLINATION": 97.9786,
          "RA_OF_ASC_NODE": 105.7076,
          "ARG_OF_PERICENTER": 354.8916,
          "MEAN_ANOMALY": 5.2185,
          "EPHEMERIS_TYPE": 0,
          "CLASSIFICATION_TYPE": "U",
          "NORAD_CAT_ID": 35682,
          "ELEMENT_SET_NO": 999,
          "REV_AT_EPOCH": 87586,
          "BSTAR": 0.00020108,
          "MEAN_MOTION_DOT": 1.289e-05,
          "MEAN_MOTION_DDOT": 0
        }
      },
      "geometry": {
        "type": "Point",
        "coordinates": [
          NaN,
          NaN
        ]
      }
    },
    {
      "type": "Feature",
      "properties": {
        "norad_id": 35931,
        "name": "OCEANSAT-2",
        "group": "resource",
        "lat": NaN,
        "lon": NaN,
        "alt_km": NaN,
        "timestamp": "2025-12-01T03:03:40.644001+00:00",
        "meta": {
          "OBJECT_NAME": "OCEANSAT-2",
          "OBJECT_ID": "2009-051A",
          "EPOCH": "2025-11-30T21:28:55.831296",
          "MEAN_MOTION": 13.99627068,
          "ECCENTRICITY": 0.0016727,
          "INCLINATION": 98.2234,
          "RA_OF_ASC_NODE": 336.6964,
          "ARG_OF_PERICENTER": 75.7341,
          "MEAN_ANOMALY": 284.5682,
          "EPHEMERIS_TYPE": 0,
          "CLASSIFICATION_TYPE": "U",
          "NORAD_CAT_ID": 35931,
          "ELEMENT_SET_NO": 999,
          "REV_AT_EPOCH": 85159,
          "BSTAR": -8.1798e-05,
          "MEAN_MOTION_DOT": -1.57e-06,
          "MEAN_MOTION_DDOT": 0
        }
      },
      "geometry": {
        "type": "Point",
        "coordinates": [
          NaN,
          NaN
        ]
      }
    },
    {
      "type": "Feature",
      "properties": {
        "norad_id": 35946,
        "name": "WORLDVIEW-2 (WV-2)",
        "group": "resource",
        "lat": NaN,
        "lon": NaN,
        "alt_km": NaN,
        "timestamp": "2025-12-01T03:03:40.644008+00:00",
        "meta": {
          "OBJECT_NAME": "WORLDVIEW-2 (WV-2)",
          "OBJECT_ID": "2009-055A",
          "EPOCH": "2025-11-30T18:24:41.971680",
          "MEAN_MOTION": 14.37643595,
          "ECCENTRICITY": 0.0005446,
          "INCLINATION": 98.4774,
          "RA_OF_ASC_NODE": 46.0188,
          "ARG_OF_PERICENTER": 95.4301,
          "MEAN_ANOMALY": 264.7507,
          "EPHEMERIS_TYPE": 0,
          "CLASSIFICATION_TYPE": "U",
          "NORAD_CAT_ID": 35946,
          "ELEMENT_SET_NO": 999,
          "REV_AT_EPOCH": 84713,
          "BSTAR": 7.4055e-05,
          "MEAN_MOTION_DOT": 1.79e-06,
          "MEAN_MOTION_DDOT": 0
        }
      },
      "geometry": {
        "type": "Point",
        "coordinates": [
          NaN,
          NaN
        ]
      }
    }
  ]
}