CARTOSAT-2A             
1 32783U 08021A   25334.83050892  .00000955  00000+0  13628-3 0  9997
2 32783  97.7947  25.0253 0012650  41.6638 318.5535 14.78899733949480
GEOEYE 1                
1 33331U 08042A   25334.77036265  .00000640  00000+0  12886-3 0  9997
2 33331  98.1266  46.1999 0003111 327.8123  32.2890 14.64785342921108
THEOS                   
1 33396U 08049A   25334.84473231  .00000062  00000+0  49171-4 0  9997
2 33396  98.5887  33.2843 0001088 100.0404 260.0896 14.20092211889817
COSMO-SKYMED 3          
1 33412U 08054A   25334.83622662  .00004448  00000+0  31572-3 0  9992
2 33412  97.8482 185.0285 0015136 213.5163 146.5107 15.05180555927084
GOSAT (IBUKI)           
1 33492U 09002A   25334.72882338  .00000951  00000+0  17615-3 0  9997
2 33492  98.0766  83.4996 0000993  84.4796 275.6522 14.67542719902351
DUBAISAT-1              
1 35682U 09041B   25334.85150035  .00001289  00000+0  20108-3 0  9995
2 35682  97.9786 105.7076 0010313 354.8916   5.2185 14.74548855875868
OCEANSAT-2              
1 35931U 09051A   25334.89509064 -.00000157  00000+0 -81798-4 0  9995
2 35931  98.2234 336.6964 0016727  75.7341 284.5682 13.99627068851592
WORLDVIEW-2 (WV-2)      
1 35946U 09055A   25334.76715245  .00000179  00000+0  74055-4 0  9991
2 35946  98.4774  46.0188 0005446  95.4301 264.7507 14.37643595847137
